$$SOE
2459580.500000000, A.D. 2022-Jan-01 00:00:00.0000, -5.489679864395657E+09, 9.914899762997744E+08, -1.493572844687664E+09,
2459587.500000000, A.D. 2022-Jan-08 00:00:00.0000, -5.489669657563366E+09, 9.883287737480752E+08, -1.493024008133849E+09,
2459594.500000000, A.D. 2022-Jan-15 00:00:00.0000, -5.489658145453612E+09, 9.851673373539255E+08, -1.492474793265777E+09,
2459601.500000000, A.D. 2022-Jan-22 00:00:00.0000, -5.489645323654063E+09, 9.820056663307807E+08, -1.491925200462688E+09,
2459608.500000000, A.D. 2022-Jan-29 00:00:00.0000, -5.489631187173640E+09, 9.788437623690934E+08, -1.491375229996877E+09,
2459615.500000000, A.D. 2022-Feb-05 00:00:00.0000, -5.489615732649604E+09, 9.756816289646447E+08, -1.490824881885926E+09,
2459622.500000000, A.D. 2022-Feb-12 00:00:00.0000, -5.489598958381302E+09, 9.725192696786296E+08, -1.490274156029994E+09,
2459629.500000000, A.D. 2022-Feb-19 00:00:00.0000, -5.489580863515387E+09, 9.693566876984929E+08, -1.489723052319130E+09,
2459636.500000000, A.D. 2022-Feb-26 00:00:00.0000, -5.489561447693850E+09, 9.661938859765278E+08, -1.489171570649645E+09,
2459643.500000000, A.D. 2022-Mar-05 00:00:00.0000, -5.489540711005609E+09, 9.630308673293524E+08, -1.488619710914753E+09,
2459650.500000000, A.D. 2022-Mar-12 00:00:00.0000, -5.489518654019825E+09, 9.598676344326431E+08, -1.488067472995546E+09,
2459657.500000000, A.D. 2022-Mar-19 00:00:00.0000, -5.489495277829897E+09, 9.567041897392962E+08, -1.487514856756787E+09,
2459664.500000000, A.D. 2022-Mar-26 00:00:00.0000, -5.489470584085711E+09, 9.535405353152766E+08, -1.486961862050373E+09,
2459671.500000000, A.D. 2022-Apr-02 00:00:00.0000, -5.489444574946373E+09, 9.503766725375292E+08, -1.486408488737509E+09,
2459678.500000000, A.D. 2022-Apr-09 00:00:00.0000, -5.489417252681340E+09, 9.472126016590106E+08, -1.485854736754379E+09,
2459685.500000000, A.D. 2022-Apr-16 00:00:00.0000, -5.489388618562855E+09, 9.440483218951428E+08, -1.485300606200796E+09,
2459692.500000000, A.D. 2022-Apr-23 00:00:00.0000, -5.489358672318497E+09, 9.408838331161364E+08, -1.484746097246984E+09,
2459699.500000000, A.D. 2022-Apr-30 00:00:00.0000, -5.489327414014067E+09, 9.377191369000858E+08, -1.484191209870512E+09,
2459706.500000000, A.D. 2022-May-07 00:00:00.0000, -5.489294845304043E+09, 9.345542349733866E+08, -1.483635943865665E+09,
2459713.500000000, A.D. 2022-May-14 00:00:00.0000, -5.489260968660212E+09, 9.313891280767524E+08, -1.483080299004430E+09,
2459720.500000000, A.D. 2022-May-21 00:00:00.0000, -5.489225786609591E+09, 9.282238160156331E+08, -1.482524275100822E+09,
2459727.500000000, A.D. 2022-May-28 00:00:00.0000, -5.489189301460408E+09, 9.250582979363344E+08, -1.481967872012955E+09,
2459734.500000000, A.D. 2022-Jun-04 00:00:00.0000, -5.489151515239023E+09, 9.218925725151103E+08, -1.481411089633815E+09,
2459741.500000000, A.D. 2022-Jun-11 00:00:00.0000, -5.489112429693096E+09, 9.187266380625601E+08, -1.480853927883794E+09,
2459748.500000000, A.D. 2022-Jun-18 00:00:00.0000, -5.489072046322268E+09, 9.155604925568224E+08, -1.480296386707378E+09,
2459755.500000000, A.D. 2022-Jun-25 00:00:00.0000, -5.489030366406881E+09, 9.123941335726078E+08, -1.479738466079333E+09,
2459762.500000000, A.D. 2022-Jul-02 00:00:00.0000, -5.488987390900660E+09, 9.092275580405982E+08, -1.479180166037935E+09,
2459769.500000000, A.D. 2022-Jul-09 00:00:00.0000, -5.488943119797042E+09, 9.060607620144079E+08, -1.478621486766470E+09,
2459776.500000000, A.D. 2022-Jul-16 00:00:00.0000, -5.488897551024320E+09, 9.028937415280726E+08, -1.478062428629294E+09,
2459783.500000000, A.D. 2022-Jul-23 00:00:00.0000, -5.488850681067962E+09, 8.997264946218896E+08, -1.477502991954268E+09,
2459790.500000000, A.D. 2022-Jul-30 00:00:00.0000, -5.488802507236040E+09, 8.965590211827142E+08, -1.476943176843145E+09,
2459797.500000000, A.D. 2022-Aug-06 00:00:00.0000, -5.488753027968997E+09, 8.933913212468760E+08, -1.476382983286842E+09,
2459804.500000000, A.D. 2022-Aug-13 00:00:00.0000, -5.488702242016919E+09, 8.902233945201454E+08, -1.475822411284708E+09,
2459811.500000000, A.D. 2022-Aug-20 00:00:00.0000, -5.488650148053701E+09, 8.870552406113745E+08, -1.475261460864763E+09,
2459818.500000000, A.D. 2022-Aug-27 00:00:00.0000, -5.488596744659927E+09, 8.838868592532316E+08, -1.474700132070302E+09,
2459825.500000000, A.D. 2022-Sep-03 00:00:00.0000, -5.488542030426567E+09, 8.807182503994893E+08, -1.474138424944433E+09,
2459832.500000000, A.D. 2022-Sep-10 00:00:00.0000, -5.488486004089372E+09, 8.775494142227857E+08, -1.473576339518755E+09,
2459839.500000000, A.D. 2022-Sep-17 00:00:00.0000, -5.488428664664573E+09, 8.743803510111201E+08, -1.473013875808959E+09,
2459846.500000000, A.D. 2022-Sep-24 00:00:00.0000, -5.488370011525425E+09, 8.712110609122007E+08, -1.472451033827072E+09,
2459853.500000000, A.D. 2022-Oct-01 00:00:00.0000, -5.488310044179648E+09, 8.680415435033545E+08, -1.471887813634294E+09,
2459860.500000000, A.D. 2022-Oct-08 00:00:00.0000, -5.488248761340427E+09, 8.648717977090694E+08, -1.471324215429311E+09,
2459867.500000000, A.D. 2022-Oct-15 00:00:00.0000, -5.488186160222836E+09, 8.617018232653509E+08, -1.470760239488842E+09,
2459874.500000000, A.D. 2022-Oct-22 00:00:00.0000, -5.488122238247253E+09, 8.585316220470113E+08, -1.470195885898203E+09,
2459881.500000000, A.D. 2022-Oct-29 00:00:00.0000, -5.488056994651967E+09, 8.553611966643909E+08, -1.469631154513205E+09,
2459888.500000000, A.D. 2022-Nov-05 00:00:00.0000, -5.487990429915645E+09, 8.521905490706666E+08, -1.469066045122234E+09,
2459895.500000000, A.D. 2022-Nov-12 00:00:00.0000, -5.487922544954500E+09, 8.490196804469714E+08, -1.468500557524957E+09,
2459902.500000000, A.D. 2022-Nov-19 00:00:00.0000, -5.487853340813523E+09, 8.458485914112046E+08, -1.467934691539843E+09,
2459909.500000000, A.D. 2022-Nov-26 00:00:00.0000, -5.487782818589569E+09, 8.426772821532117E+08, -1.467368446997160E+09,
2459916.500000000, A.D. 2022-Dec-03 00:00:00.0000, -5.487710979420259E+09, 8.395057524847991E+08, -1.466801823733733E+09,
2459923.500000000, A.D. 2022-Dec-10 00:00:00.0000, -5.487637824493162E+09, 8.363340018232729E+08, -1.466234821592138E+09,
2459930.500000000, A.D. 2022-Dec-17 00:00:00.0000, -5.487563355050584E+09, 8.331620290835183E+08, -1.465667440428681E+09,
2459937.500000000, A.D. 2022-Dec-24 00:00:00.0000, -5.487487572280504E+09, 8.299898324127791E+08, -1.465099680145528E+09,
2459944.500000000, A.D. 2022-Dec-31 00:00:00.0000, -5.487410476736090E+09, 8.268174088756468E+08, -1.464531540770988E+09,
2459951.500000000, A.D. 2023-Jan-07 00:00:00.0000, -5.487332067161023E+09, 8.236447550516567E+08, -1.463963022520480E+09,
2459958.500000000, A.D. 2023-Jan-14 00:00:00.0000, -5.487252340687701E+09, 8.204718690422943E+08, -1.463394125617111E+09,
2459965.500000000, A.D. 2023-Jan-21 00:00:00.0000, -5.487171295053026E+09, 8.172987507147832E+08, -1.462824850071911E+09,
2459972.500000000, A.D. 2023-Jan-28 00:00:00.0000, -5.487088929163800E+09, 8.141253999871538E+08, -1.462255195776078E+09,
2459979.500000000, A.D. 2023-Feb-04 00:00:00.0000, -5.487005242220271E+09, 8.109518161823422E+08, -1.461685162638596E+09,
2459986.500000000, A.D. 2023-Feb-11 00:00:00.0000, -5.486920233193029E+09, 8.077779982577891E+08, -1.461114750620275E+09,
2459993.500000000, A.D. 2023-Feb-18 00:00:00.0000, -5.486833900716474E+09, 8.046039450874851E+08, -1.460543959725566E+09,
2460000.500000000, A.D. 2023-Feb-25 00:00:00.0000, -5.486746243135892E+09, 8.014296556348631E+08, -1.459972789989350E+09,
2460007.500000000, A.D. 2023-Mar-04 00:00:00.0000, -5.486657258605855E+09, 7.982551290355626E+08, -1.459401241466362E+09,
2460014.500000000, A.D. 2023-Mar-11 00:00:00.0000, -5.486566945211072E+09, 7.950803645908076E+08, -1.458829314225669E+09,
2460021.500000000, A.D. 2023-Mar-18 00:00:00.0000, -5.486475301062481E+09, 7.919053616221766E+08, -1.458257008358330E+09,
2460028.500000000, A.D. 2023-Mar-25 00:00:00.0000, -5.486382324165022E+09, 7.887301191407878E+08, -1.457684324020554E+09,
2460035.500000000, A.D. 2023-Apr-01 00:00:00.0000, -5.486288011632450E+09, 7.855546357245361E+08, -1.457111261518902E+09,
2460042.500000000, A.D. 2023-Apr-08 00:00:00.0000, -5.486192358864353E+09, 7.823789108285513E+08, -1.456537821280793E+09,
2460049.500000000, A.D. 2023-Apr-15 00:00:00.0000, -5.486095361022326E+09, 7.792029464228823E+08, -1.455964003586167E+09,
2460056.500000000, A.D. 2023-Apr-22 00:00:00.0000, -5.485997014995973E+09, 7.760267459055688E+08, -1.455389808475557E+09,
2460063.500000000, A.D. 2023-Apr-29 00:00:00.0000, -5.485897319123663E+09, 7.728503125440602E+08, -1.454815235901273E+09,
2460070.500000000, A.D. 2023-May-06 00:00:00.0000, -5.485796272428219E+09, 7.696736492262169E+08, -1.454240285814736E+09,
2460077.500000000, A.D. 2023-May-13 00:00:00.0000, -5.485693874344261E+09, 7.664967586274616E+08, -1.453664958173475E+09,
2460084.500000000, A.D. 2023-May-20 00:00:00.0000, -5.485590124703052E+09, 7.633196433030760E+08, -1.453089252929578E+09,
2460091.500000000, A.D. 2023-May-27 00:00:00.0000, -5.485485023781326E+09, 7.601423056762974E+08, -1.452513170019987E+09,
2460098.500000000, A.D. 2023-Jun-03 00:00:00.0000, -5.485378572356518E+09, 7.569647479482634E+08, -1.451936709362057E+09,
2460105.500000000, A.D. 2023-Jun-10 00:00:00.0000, -5.485270771744578E+09, 7.537869719161134E+08, -1.451359870857972E+09,
2460112.500000000, A.D. 2023-Jun-17 00:00:00.0000, -5.485161623731376E+09, 7.506089786392006E+08, -1.450782654421371E+09,
2460119.500000000, A.D. 2023-Jun-24 00:00:00.0000, -5.485051130077655E+09, 7.474307680090817E+08, -1.450205060051240E+09,
2460126.500000000, A.D. 2023-Jul-01 00:00:00.0000, -5.484939291344447E+09, 7.442523390514467E+08, -1.449627087908840E+09,
2460133.500000000, A.D. 2023-Jul-08 00:00:00.0000, -5.484826106712874E+09, 7.410736917820853E+08, -1.449048738177106E+09,
2460140.500000000, A.D. 2023-Jul-15 00:00:00.0000, -5.484711576075156E+09, 7.378948277871747E+08, -1.448470010816794E+09,
$$EOE